[{"OBJECT_NAME":"JILIN-1 06","OBJECT_ID":"2017-074C","EPOCH":"2026-03-09T22:46:57.173376","MEAN_MOTION":15.32444387,"ECCENTRICITY":0.00061285,"INCLINATION":97.4715,"RA_OF_ASC_NODE":171.0354,"ARG_OF_PERICENTER":223.0031,"MEAN_ANOMALY":137.0732,"EPHEMERIS_TYPE":0,"CLASSIFICATION_TYPE":"U","NORAD_CAT_ID":43024,"ELEMENT_SET_NO":999,"REV_AT_EPOCH":45863,"BSTAR":0.00028431628,"MEAN_MOTION_DOT":8.833e-5,"MEAN_MOTION_DDOT":0},{"OBJECT_NAME":"STARLINK-35593","OBJECT_ID":"2025-236X","EPOCH":"2026-03-09T10:07:14.554272","MEAN_MOTION":15.30193624,"ECCENTRICITY":0.00012594,"INCLINATION":53.1598,"RA_OF_ASC_NODE":105.1111,"ARG_OF_PERICENTER":73.6462,"MEAN_ANOMALY":286.4677,"EPHEMERIS_TYPE":0,"CLASSIFICATION_TYPE":"U","NORAD_CAT_ID":66107,"ELEMENT_SET_NO":999,"REV_AT_EPOCH":2290,"BSTAR":0.00062980482,"MEAN_MOTION_DOT":0.00018336,"MEAN_MOTION_DDOT":0}]
